STARLINK - 2019-029AQ              
1 44273U 19029AQ  19146.90846867  .00002301  00000-0  61043-4 0  9994
2 44273  53.0006 161.9962 0005798 275.6567 210.8455 15.42832474   529